[Satellite]
VERSION=1.1
NAME=Lapan A3
NICKNAME=Lapan A3
TLE1=1 41603U 16040E   22335.88399600  .00001355  00000-0  63672-4 0  9995
TLE2=2 41603  97.1885   5.4968 0011404 296.2235 181.2033 15.21178400357489
STATUS=0
